{
    "links": {
        "self": "http://www.neowsapp.com/rest/v1/neo/3607466?api_key=iIulBulltgU6a56xZRHN4H3l9WmuAYTsLGpBGhQ2"
    },
    "id": "3607466",
    "neo_reference_id": "3607466",
    "name": "(2012 PN6)",
    "designation": "2012 PN6",
    "nasa_jpl_url": "http://ssd.jpl.nasa.gov/sbdb.cgi?sstr=3607466",
    "absolute_magnitude_h": 22.2,
    "estimated_diameter": {
        "kilometers": {
            "estimated_diameter_min": 0.096506147,
            "estimated_diameter_max": 0.2157943048
        },
        "meters": {
            "estimated_diameter_min": 96.5061469579,
            "estimated_diameter_max": 215.7943048444
        },
        "miles": {
            "estimated_diameter_min": 0.059966121,
            "estimated_diameter_max": 0.134088323
        },
        "feet": {
            "estimated_diameter_min": 316.6212271853,
            "estimated_diameter_max": 707.9865871058
        }
    },
    "is_potentially_hazardous_asteroid": false,
    "close_approach_data": [
        {
            "close_approach_date": "2001-08-24",
            "close_approach_date_full": "2001-Aug-24 17:10",
            "epoch_date_close_approach": 998673000000,
            "relative_velocity": {
                "kilometers_per_second": "18.2973582781",
                "kilometers_per_hour": "65870.4898013094",
                "miles_per_hour": "40929.3607323747"
            },
            "miss_distance": {
                "astronomical": "0.3073911468",
                "lunar": "119.5751561052",
                "kilometers": "45985060.818137316",
                "miles": "28573791.8080583208"
            },
            "orbiting_body": "Earth"
        },
        {
            "close_approach_date": "2012-08-18",
            "close_approach_date_full": "2012-Aug-18 11:21",
            "epoch_date_close_approach": 1345288860000,
            "relative_velocity": {
                "kilometers_per_second": "16.0817238112",
                "kilometers_per_hour": "57894.2057202545",
                "miles_per_hour": "35973.2079932326"
            },
            "miss_distance": {
                "astronomical": "0.1458823973",
                "lunar": "56.7482525497",
                "kilometers": "21823695.906573751",
                "miles": "13560615.8222337238"
            },
            "orbiting_body": "Earth"
        },
        {
            "close_approach_date": "2023-08-14",
            "close_approach_date_full": "2023-Aug-14 05:16",
            "epoch_date_close_approach": 1691990160000,
            "relative_velocity": {
                "kilometers_per_second": "16.1030008012",
                "kilometers_per_hour": "57970.8028844719",
                "miles_per_hour": "36020.8024922987"
            },
            "miss_distance": {
                "astronomical": "0.2835108321",
                "lunar": "110.2857136869",
                "kilometers": "42412616.604087627",
                "miles": "26353977.9075861726"
            },
            "orbiting_body": "Earth"
        }
    ],
    "orbital_data": {
        "orbit_id": "14",
        "orbit_determination_date": "2017-04-06 08:49:20",
        "first_observation_date": "2012-08-11",
        "last_observation_date": "2012-09-12",
        "data_arc_in_days": 32,
        "observations_used": 46,
        "orbit_uncertainty": "7",
        "minimum_orbit_intersection": ".145596",
        "jupiter_tisserand_invariant": "4.020",
        "epoch_osculation": "2459000.5",
        "eccentricity": ".3212235475959151",
        "semi_major_axis": "1.68731143261071",
        "inclination": "29.78016165251956",
        "ascending_node_longitude": "147.6469171432181",
        "orbital_period": "800.5552327453788",
        "perihelion_distance": "1.145307268328352",
        "perihelion_argument": "162.1253003089409",
        "aphelion_distance": "2.229315596893068",
        "perihelion_time": "2459343.835422929172",
        "mean_anomaly": "205.6062152880664",
        "mean_motion": ".4496878981921539",
        "equinox": "J2000",
        "orbit_class": {
            "orbit_class_type": "AMO",
            "orbit_class_description": "Near-Earth asteroid orbits similar to that of 1221 Amor",
            "orbit_class_range": "1.017 AU < q (perihelion) < 1.3 AU"
        }
    },
    "is_sentry_object": false
}